IRIDIUM 150             
1 43257U 18030J   25249.88795599 -.00000001  00000+0 -72779-5 0  9994
2 43257  86.3939  48.8793 0002273  91.4989 268.6468 14.34217443389557
IRIDIUM 143             
1 43258U 18030K   25249.93870233  .00000168  00000+0  53006-4 0  9993
2 43258  86.3945  48.9393 0002595  90.1832 269.9661 14.34219921389497
IRIDIUM 161             
1 43478U 18047C   25249.95252168  .00000356  00000+0  99882-4 0  9999
2 43478  86.4524 206.7679 0002130  86.8361 273.3083 14.43274787384280
IRIDIUM 152             
1 43479U 18047D   25249.91141556  .00000352  00000+0  11854-3 0  9992
2 43479  86.3998 206.6459 0002196  89.7646 270.3801 14.34217558381881
IRIDIUM 147             
1 43480U 18047E   25249.91775829 -.00000005  00000+0 -90181-5 0  9999
2 43480  86.4002 206.6438 0002066  82.7523 277.3908 14.34217124381884
IRIDIUM 110             
1 43481U 18047F   25249.92409981 -.00000155  00000+0 -62443-4 0  9999
2 43481  86.4003 206.7255 0001668  86.2464 273.8923 14.34216802381873
IRIDIUM 162             
1 43482U 18047G   25249.94622345  .00000538  00000+0  15403-3 0  9999
2 43482  86.4522 206.6650 0002085  93.2770 266.8669 14.43287288384272
IRIDIUM 160             
1 43569U 18061A   25249.86993396  .00000436  00000+0  14868-3 0  9990
2 43569  86.4047 175.1882 0001987  83.2776 276.8646 14.34216247372766
